{"type": "FeatureCollection", "features": [
{"type":"Feature","properties":{"code":"UK","name":"Усть-Каменогорск"},"geometry":{"type":"MultiPolygon","coordinates":[[[[82.39597,49.92041],[82.45806,49.91542],[82.42794,49.8812],[82.46613,49.87163],[82.49522,49.88601],[82.51737,49.90166],[82.58927,49.86346],[82.55847,49.85066],[82.56636,49.83001],[82.61298,49.80127],[82.62772,49.79557],[82.62532,49.80391],[82.64113,49.81119],[82.66654,49.799],[82.69049,49.81981],[82.83949,49.77328],[82.87927,49.7901],[82.89183,49.75598],[82.95361,49.74028],[82.97388,49.76202],[82.97223,49.76689],[82.96079,49.77237],[82.93399,49.76839],[82.9323,49.77401],[82.94652,49.79208],[82.94624,49.80022],[82.90148,49.8181],[82.90183,49.82861],[82.89341,49.84084],[82.90847,49.84888],[82.91453,49.86338],[82.90797,49.87401],[82.72247,49.91179],[82.68382,49.95477],[82.66221,49.97387],[82.71495,50.0025],[82.80081,50.0265],[82.77134,50.03775],[82.7307,50.04017],[82.645,50.03003],[82.6103,50.02353],[82.58262,50.01268],[82.56809,50.02429],[82.54565,50.0225],[82.51733,50.0411],[82.49342,50.02373],[82.47415,50.02906],[82.44338,50.00553],[82.43884,49.98027],[82.44101,49.9762],[82.45478,49.96914],[82.39597,49.92041]]]]}},
{"type":"Feature","properties":{"code":"RID","name":"Риддер"},"geometry":{"type":"MultiPolygon","coordinates":[[[[83.12708,50.25986],[83.13157,50.25673],[83.13303,50.2479],[83.14716,50.23288],[83.15914,50.2284],[83.21809,50.19071],[83.21322,50.16495],[83.2235,50.1626],[83.27588,50.12562],[83.30574,50.13988],[83.32224,50.14213],[83.34181,50.14182],[83.34389,50.13812],[83.39745,50.13114],[83.43975,50.13905],[83.44569,50.14431],[83.44758,50.15159],[83.45586,50.15723],[83.47262,50.15108],[83.52107,50.16715],[83.51965,50.18028],[83.5141,50.18371],[83.52126,50.19539],[83.64201,50.18843],[83.67033,50.19477],[83.67957,50.18883],[83.7111,50.19725],[83.74522,50.19854],[83.76487,50.20966],[83.77317,50.20838],[83.77405,50.21371],[83.78187,50.2162],[83.79655,50.21272],[83.80965,50.21555],[83.81426,50.20383],[83.82176,50.20432],[83.82286,50.19862],[83.83013,50.19863],[83.84137,50.2042],[83.85127,50.20267],[83.86349,50.20918],[83.88875,50.20536],[83.90245,50.21179],[83.91801,50.20173],[83.94072,50.20204],[83.9556,50.21885],[83.95839,50.23485],[83.96769,50.24124],[83.99106,50.2407],[84.00022,50.24334],[84.00065,50.27139],[83.97771,50.27808],[83.98381,50.28691],[83.98402,50.29397],[84.00142,50.29437],[84.01747,50.28547],[84.02314,50.29011],[84.03108,50.28838],[84.04464,50.29734],[84.06425,50.28981],[84.07833,50.28917],[84.12369,50.29403],[84.13622,50.28405],[84.13798,50.27675],[84.15223,50.27434],[84.18094,50.28229],[84.19209,50.29046],[84.19746,50.30253],[84.18437,50.3056],[84.17622,50.31198],[84.18321,50.31927],[84.20587,50.31735],[84.23583,50.30488],[84.26223,50.31015],[84.26322,50.31443],[84.27203,50.32066],[84.26176,50.32557],[84.26954,50.33834],[84.26598,50.34834],[84.26956,50.35375],[84.26043,50.36611],[84.24203,50.37685],[84.23969,50.38752],[84.24573,50.39275],[84.24199,50.40866],[84.22671,50.43077],[84.21645,50.43423],[84.20654,50.45414],[84.20403,50.46765],[84.20891,50.47274],[84.23257,50.48307],[84.23751,50.50098],[84.23531,50.50421],[84.24871,50.51557],[84.24324,50.51762],[84.23058,50.54024],[84.21302,50.54372],[84.19673,50.54162],[84.17615,50.55161],[84.16914,50.55174],[84.17208,50.56341],[84.16739,50.56998],[84.15175,50.57394],[84.15687,50.58734],[84.14397,50.60624],[84.11529,50.60919],[84.10783,50.62309],[84.08073,50.63485],[84.08129,50.63999],[84.0739,50.64392],[84.07167,50.65912],[84.0578,50.66268],[84.04478,50.67625],[84.00318,50.67004],[83.97565,50.67227],[83.95254,50.68793],[83.91486,50.6814],[83.90435,50.67452],[83.8834,50.678],[83.86272,50.66154],[83.83753,50.65746],[83.83736,50.65343],[83.83195,50.65311],[83.82238,50.6447],[83.78094,50.63655],[83.75361,50.64033],[83.74539,50.63765],[83.73496,50.62348],[83.7199,50.61746],[83.65577,50.61193],[83.64887,50.59255],[83.64081,50.5958],[83.62951,50.59362],[83.61766,50.59663],[83.61321,50.59297],[83.60745,50.59505],[83.60146,50.58352],[83.5884,50.58327],[83.58159,50.58823],[83.56305,50.59277],[83.53558,50.59281],[83.51939,50.59771],[83.50697,50.60695],[83.46871,50.61211],[83.45111,50.61906],[83.43352,50.61628],[83.41264,50.62276],[83.38533,50.61854],[83.38132,50.61946],[83.37683,50.62629],[83.3665,50.62779],[83.34518,50.61534],[83.3363,50.6253],[83.34179,50.63483],[83.33343,50.64144],[83.33617,50.64737],[83.33152,50.64409],[83.32236,50.64538],[83.29705,50.65659],[83.28246,50.65088],[83.26092,50.64858],[83.22071,50.65501],[83.18927,50.64626],[83.16285,50.64739],[83.15094,50.63762],[83.153,50.63148],[83.14217,50.62488],[83.14012,50.61864],[83.14998,50.61359],[83.15228,50.60851],[83.14883,50.60448],[83.15497,50.59899],[83.15523,50.59238],[83.18732,50.59424],[83.22298,50.58978],[83.23826,50.58476],[83.2513,50.58498],[83.31327,50.54753],[83.31636,50.54],[83.30924,50.5221],[83.3186,50.50993],[83.30667,50.50371],[83.30933,50.49154],[83.3028,50.48351],[83.2974,50.46685],[83.28203,50.45811],[83.26658,50.45526],[83.26461,50.44163],[83.251,50.42561],[83.25791,50.41087],[83.22575,50.39604],[83.22176,50.39056],[83.21097,50.39067],[83.204,50.37845],[83.18301,50.37586],[83.1797,50.35845],[83.19172,50.34931],[83.19538,50.33809],[83.17846,50.3216],[83.17202,50.29969],[83.1747,50.29563],[83.15396,50.29136],[83.14063,50.26357],[83.13117,50.26374],[83.12708,50.25986]]]]}},
{"type":"Feature","properties":{"code":"ALT","name":"район Алтай"},"geometry":{"type":"MultiPolygon","coordinates":[[[[82.89341,49.84084],[82.90183,49.82861],[82.90285,49.81612],[82.94624,49.80022],[82.94652,49.79208],[82.93367,49.77694],[82.93258,49.76961],[82.94019,49.76799],[82.96079,49.77237],[82.97362,49.7647],[82.97055,49.75607],[82.95361,49.74028],[82.95081,49.73372],[82.94807,49.71813],[82.9585,49.70855],[82.97777,49.71102],[83.00488,49.71994],[83.01656,49.7195],[83.02765,49.71183],[83.02724,49.704],[83.01819,49.69091],[83.02392,49.68367],[83.03508,49.683],[83.06346,49.68897],[83.07685,49.68546],[83.09863,49.69194],[83.10762,49.6903],[83.1264,49.67966],[83.14781,49.68172],[83.22718,49.66695],[83.25328,49.66854],[83.2691,49.67323],[83.31624,49.6744],[83.33777,49.68277],[83.34718,49.68283],[83.35353,49.6739],[83.3456,49.6567],[83.34649,49.6434],[83.35001,49.63773],[83.36254,49.62973],[83.42269,49.61419],[83.45711,49.58204],[83.48263,49.57889],[83.5157,49.58217],[83.56981,49.57359],[83.61042,49.53509],[83.65299,49.48697],[83.75365,49.46782],[83.80401,49.45262],[83.88261,49.43457],[83.91568,49.40515],[83.96091,49.38758],[83.99786,49.36692],[84.04816,49.32915],[84.077,49.33743],[84.09193,49.3563],[84.10856,49.36174],[84.11101,49.36639],[84.11826,49.36506],[84.12525,49.37153],[84.13815,49.3717],[84.1524,49.37782],[84.18308,49.40304],[84.21802,49.41103],[84.28548,49.3691],[84.35097,49.40341],[84.37067,49.39743],[84.41281,49.39486],[84.47861,49.46],[84.5729,49.44782],[84.59528,49.43635],[84.60983,49.43665],[84.60078,49.44486],[84.63944,49.46469],[84.64001,49.46738],[84.63251,49.47656],[84.62411,49.48083],[84.59868,49.48658],[84.62165,49.53129],[84.64027,49.52776],[84.64833,49.53084],[84.67011,49.55942],[84.66619,49.57573],[84.68297,49.59643],[84.68022,49.61043],[84.69175,49.63018],[84.67273,49.65649],[84.66692,49.65921],[84.66152,49.68076],[84.65402,49.68644],[84.65853,49.70532],[84.68248,49.71987],[84.7307,49.70887],[84.75497,49.69077],[84.73707,49.64913],[84.74287,49.64234],[84.74973,49.64307],[84.749,49.63247],[84.7569,49.62412],[84.76819,49.62443],[84.78093,49.60588],[84.77868,49.60259],[84.79988,49.59397],[84.80365,49.58771],[84.86361,49.59118],[84.90628,49.59967],[84.91841,49.59765],[84.92708,49.59146],[84.92853,49.5855],[84.93378,49.58996],[84.93198,49.60267],[84.94371,49.58654],[84.94379,49.61752],[84.8539,49.69659],[84.86531,49.69935],[84.94548,49.69625],[84.96076,49.68845],[84.97712,49.67135],[84.98839,49.66839],[85.01217,49.67491],[85.03105,49.68588],[85.04051,49.68286],[85.04467,49.67458],[85.05353,49.66981],[85.07185,49.67208],[85.09244,49.66728],[85.10862,49.66235],[85.1162,49.65452],[85.1186,49.66628],[85.12147,49.66686],[85.14926,49.66607],[85.16507,49.66025],[85.19506,49.66077],[85.20363,49.65744],[85.21009,49.66184],[85.20831,49.67276],[85.21412,49.67525],[85.21494,49.68907],[85.208,49.6978],[85.21033,49.70253],[85.20546,49.70986],[85.20683,49.71541],[85.21335,49.71515],[85.21553,49.71853],[85.19858,49.73719],[85.20405,49.74177],[85.20337,49.74527],[85.18196,49.75452],[85.17529,49.75456],[85.1657,49.76908],[85.14875,49.76791],[85.14815,49.77377],[85.14313,49.77863],[85.14487,49.78112],[85.1395,49.78538],[85.13968,49.79065],[85.14457,49.79642],[85.13556,49.80035],[85.12859,49.81286],[85.12128,49.81796],[85.11246,49.81832],[85.10008,49.82582],[85.10493,49.83442],[85.1055,49.84312],[85.10083,49.84533],[85.10043,49.85212],[85.08458,49.86018],[85.08039,49.86858],[85.0597,49.88504],[85.02327,49.89105],[85.0115,49.89829],[85.00476,49.89828],[84.99521,49.90559],[84.98549,49.90677],[84.98714,49.92342],[84.97811,49.94253],[84.98493,49.94992],[84.97295,49.95428],[84.99473,49.97013],[84.97805,49.97629],[84.97969,49.98031],[85.00846,49.99535],[85.03216,49.99906],[85.03783,50.00907],[85.04926,50.0104],[85.03537,50.01888],[85.03738,50.02019],[85.03236,50.03336],[85.03352,50.04183],[85.03948,50.04842],[85.03554,50.05249],[85.02613,50.05407],[85.02414,50.06022],[85.00625,50.05817],[84.97483,50.06696],[84.9663,50.0725],[84.94583,50.09661],[84.92399,50.09216],[84.90528,50.09541],[84.88659,50.10422],[84.87685,50.10208],[84.87278,50.09599],[84.86437,50.09607],[84.85636,50.09211],[84.8507,50.0939],[84.8335,50.1051],[84.83258,50.11428],[84.81661,50.1167],[84.81391,50.12077],[84.81342,50.13616],[84.82537,50.14298],[84.80523,50.1472],[84.75772,50.1369],[84.74927,50.14],[84.73236,50.15373],[84.72718,50.16423],[84.69947,50.17783],[84.69201,50.18862],[84.6627,50.19374],[84.65849,50.19978],[84.64982,50.20011],[84.62819,50.21068],[84.60556,50.21193],[84.58117,50.20807],[84.56966,50.20125],[84.56752,50.19684],[84.54136,50.2074],[84.53026,50.20604],[84.51578,50.21506],[84.50281,50.23147],[84.4568,50.24726],[84.44697,50.24635],[84.43384,50.23608],[84.43156,50.23002],[84.41257,50.21645],[84.40985,50.20923],[84.39107,50.21583],[84.37655,50.21447],[84.36252,50.20546],[84.35746,50.21381],[84.32585,50.22858],[84.32498,50.2389],[84.32086,50.24019],[84.31832,50.24703],[84.3005,50.24845],[84.28065,50.26154],[84.27879,50.267],[84.26573,50.27322],[84.25496,50.28611],[84.25605,50.28931],[84.25068,50.29251],[84.25185,50.29717],[84.25971,50.30105],[84.26223,50.31015],[84.23583,50.30488],[84.20587,50.31735],[84.18321,50.31927],[84.17622,50.31198],[84.18437,50.3056],[84.19746,50.30253],[84.19209,50.29046],[84.18094,50.28229],[84.15223,50.27434],[84.13798,50.27675],[84.13622,50.28405],[84.12369,50.29403],[84.07833,50.28917],[84.06425,50.28981],[84.04464,50.29734],[84.03108,50.28838],[84.02314,50.29011],[84.01747,50.28547],[84.00142,50.29437],[83.98402,50.29397],[83.98381,50.28691],[83.97771,50.27808],[84.00065,50.27139],[84.00022,50.24334],[83.99106,50.2407],[83.96769,50.24124],[83.95839,50.23485],[83.9556,50.21885],[83.94072,50.20204],[83.91801,50.20173],[83.90245,50.21179],[83.88875,50.20536],[83.86349,50.20918],[83.85127,50.20267],[83.84137,50.2042],[83.83013,50.19863],[83.82286,50.19862],[83.82176,50.20432],[83.81426,50.20383],[83.80965,50.21555],[83.79655,50.21272],[83.78187,50.2162],[83.77405,50.21371],[83.77317,50.20838],[83.76487,50.20966],[83.74522,50.19854],[83.7111,50.19725],[83.67957,50.18883],[83.67033,50.19477],[83.64201,50.18843],[83.52126,50.19539],[83.5141,50.18371],[83.51965,50.18028],[83.52107,50.16715],[83.47262,50.15108],[83.45586,50.15723],[83.44758,50.15159],[83.44569,50.14431],[83.43975,50.13905],[83.41717,50.13296],[83.39745,50.13114],[83.34389,50.13812],[83.34181,50.14182],[83.30574,50.13988],[83.27588,50.12562],[83.26537,50.11129],[83.26364,50.09959],[83.25189,50.08177],[83.256,50.07618],[83.25131,50.06647],[83.25172,50.05983],[83.26676,50.03576],[83.26799,50.01602],[83.37137,49.98633],[83.40671,49.98956],[83.40498,49.98227],[83.38781,49.97048],[83.38579,49.95872],[83.35814,49.96168],[83.31993,49.94487],[83.31075,49.93085],[83.32966,49.91772],[83.31816,49.91528],[83.30136,49.90638],[83.29725,49.89503],[83.27523,49.89288],[83.26117,49.90342],[83.24988,49.89272],[83.24186,49.89058],[83.23554,49.89164],[83.22391,49.90662],[83.21191,49.90654],[83.2053,49.91088],[83.20004,49.9195],[83.20756,49.92302],[83.21006,49.93043],[83.19749,49.9349],[83.1988,49.93865],[83.18598,49.94727],[83.1585,49.95378],[83.15369,49.96299],[83.10623,49.95],[83.07743,49.95698],[83.0665,49.95534],[83.05155,49.95793],[83.0365,49.95408],[83.06411,49.9243],[83.06496,49.91794],[83.05081,49.91335],[83.05065,49.91005],[83.03497,49.908],[83.02594,49.91012],[83.01752,49.90423],[82.98519,49.91081],[82.96364,49.89782],[82.93102,49.88901],[82.90797,49.87401],[82.91453,49.86338],[82.90847,49.84888],[82.89341,49.84084]]]]}},
{"type":"Feature","properties":{"code":"GLU","name":"Глубоковский район"},"geometry":{"type":"MultiPolygon","coordinates":[[[[81.98015,50.21305],[82.01105,50.21778],[82.02719,50.21294],[82.03959,50.20297],[82.08722,50.20795],[82.14426,50.20361],[82.1643,50.20751],[82.17704,50.22303],[82.1999,50.22135],[82.22535,50.23175],[82.25867,50.21505],[82.2758,50.14195],[82.33613,50.06414],[82.40296,50.0606],[82.46362,50.03649],[82.47415,50.02906],[82.49342,50.02373],[82.51733,50.0411],[82.54565,50.0225],[82.56809,50.02429],[82.57956,50.0126],[82.6103,50.02353],[82.645,50.03003],[82.7307,50.04017],[82.77134,50.03775],[82.80081,50.0265],[82.71495,50.0025],[82.66221,49.97387],[82.68382,49.95477],[82.72247,49.91179],[82.90797,49.87401],[82.92888,49.88804],[82.96364,49.89782],[82.98519,49.91081],[83.01752,49.90423],[83.02594,49.91012],[83.03497,49.908],[83.05065,49.91005],[83.05081,49.91335],[83.06496,49.91794],[83.06411,49.9243],[83.0365,49.95408],[83.05155,49.95793],[83.0665,49.95534],[83.07743,49.95698],[83.10623,49.95],[83.15369,49.96299],[83.1585,49.95378],[83.18598,49.94727],[83.1988,49.93865],[83.19749,49.9349],[83.21006,49.93043],[83.20756,49.92302],[83.20004,49.9195],[83.2053,49.91088],[83.21191,49.90654],[83.22391,49.90662],[83.23554,49.89164],[83.24988,49.89272],[83.26117,49.90342],[83.27523,49.89288],[83.29725,49.89503],[83.30136,49.90638],[83.31816,49.91528],[83.32966,49.91772],[83.31075,49.93085],[83.31993,49.94487],[83.35814,49.96168],[83.38579,49.95872],[83.38781,49.97048],[83.40498,49.98227],[83.40671,49.98956],[83.37137,49.98633],[83.26799,50.01602],[83.26676,50.03576],[83.25172,50.05983],[83.25131,50.06647],[83.256,50.07618],[83.25189,50.08177],[83.26364,50.09959],[83.26537,50.11129],[83.27588,50.12562],[83.2235,50.1626],[83.21322,50.16495],[83.21809,50.19071],[83.15914,50.2284],[83.14716,50.23288],[83.13303,50.2479],[83.13157,50.25673],[83.12708,50.25986],[83.13117,50.26374],[83.14063,50.26357],[83.15396,50.29136],[83.1747,50.29563],[83.17202,50.29969],[83.17846,50.3216],[83.19538,50.33809],[83.19172,50.34931],[83.1797,50.35845],[83.18301,50.37586],[83.204,50.37845],[83.21097,50.39067],[83.22176,50.39056],[83.22575,50.39604],[83.25791,50.41087],[83.251,50.42561],[83.26461,50.44163],[83.26658,50.45526],[83.28203,50.45811],[83.2974,50.46685],[83.3028,50.48351],[83.30933,50.49154],[83.30667,50.50371],[83.3186,50.50993],[83.30924,50.5221],[83.31636,50.54],[83.31327,50.54753],[83.30237,50.55631],[83.28581,50.56329],[83.2513,50.58498],[83.23826,50.58476],[83.22298,50.58978],[83.18732,50.59424],[83.1565,50.59162],[83.15497,50.59899],[83.14883,50.60448],[83.15228,50.60851],[83.14998,50.61359],[83.14012,50.61864],[83.14217,50.62488],[83.153,50.63148],[83.15094,50.63762],[83.16285,50.64739],[83.18927,50.64626],[83.20506,50.64873],[83.21633,50.65482],[83.26092,50.64858],[83.28246,50.65088],[83.29705,50.65659],[83.32236,50.64538],[83.33152,50.64409],[83.33617,50.64737],[83.33343,50.64144],[83.34179,50.63483],[83.3363,50.6253],[83.34518,50.61534],[83.3665,50.62779],[83.37683,50.62629],[83.38132,50.61946],[83.38533,50.61854],[83.41264,50.62276],[83.43352,50.61628],[83.45111,50.61906],[83.46871,50.61211],[83.50697,50.60695],[83.51939,50.59771],[83.53558,50.59281],[83.56305,50.59277],[83.59108,50.58302],[83.60146,50.58352],[83.60745,50.59505],[83.61321,50.59297],[83.61766,50.59663],[83.62951,50.59362],[83.64081,50.5958],[83.64887,50.59255],[83.65577,50.61193],[83.72721,50.61955],[83.73496,50.62348],[83.74539,50.63765],[83.75361,50.64033],[83.78094,50.63655],[83.82238,50.6447],[83.83195,50.65311],[83.83736,50.65343],[83.83753,50.65746],[83.86272,50.66154],[83.8834,50.678],[83.90435,50.67452],[83.91486,50.6814],[83.95254,50.68793],[83.97565,50.67227],[84.00318,50.67004],[84.04102,50.67697],[84.02322,50.69786],[83.98725,50.70999],[83.98563,50.71533],[83.96611,50.72799],[83.96371,50.7364],[83.95104,50.7464],[83.94892,50.75056],[83.95175,50.75394],[83.95169,50.76357],[83.97622,50.77994],[83.97266,50.7954],[83.96693,50.79669],[83.96241,50.80248],[83.91049,50.81626],[83.89707,50.83212],[83.87626,50.8385],[83.87619,50.84849],[83.86096,50.85594],[83.8488,50.85618],[83.84736,50.86084],[83.84997,50.86475],[83.83633,50.86995],[83.83367,50.88002],[83.82435,50.88357],[83.80661,50.88283],[83.79741,50.88782],[83.75464,50.89007],[83.74335,50.89419],[83.71438,50.89297],[83.70357,50.89621],[83.69262,50.90896],[83.67785,50.91545],[83.68087,50.92184],[83.67861,50.92796],[83.6565,50.93953],[83.6487,50.95478],[83.63023,50.9436],[83.62698,50.94987],[83.5977,50.96073],[83.59351,50.94943],[83.58429,50.94672],[83.57228,50.95488],[83.53759,50.96087],[83.51227,50.94855],[83.50692,50.94972],[83.50108,50.95251],[83.50439,50.95793],[83.50241,50.97401],[83.49951,50.97663],[83.48882,50.97924],[83.44748,50.97714],[83.43022,50.98671],[83.43981,51.00495],[83.43245,51.00938],[83.40716,51.01319],[83.39521,51.00989],[83.38711,51.00374],[83.3663,50.99861],[83.35823,51.00196],[83.3582,51.00755],[83.32011,51.01051],[83.29156,51.00896],[83.28444,51.01504],[83.27714,51.01334],[83.26837,51.00603],[83.22568,51.00118],[83.20604,50.99336],[83.17962,51.0038],[83.17504,51.01157],[83.12102,51.011],[83.12203,51.0048],[83.11919,51.00124],[83.12231,50.98452],[83.11478,50.97835],[83.11248,50.96595],[83.09239,50.95534],[83.08863,50.94886],[83.05896,50.93461],[83.00599,50.9252],[82.97964,50.88385],[82.98211,50.85489],[82.99656,50.84627],[82.98798,50.83977],[82.97956,50.83793],[82.97836,50.83207],[82.99905,50.82936],[83.01493,50.8222],[83.0193,50.81277],[83.01407,50.80528],[82.99941,50.79568],[82.98111,50.80214],[82.96523,50.7762],[82.97064,50.77018],[82.93682,50.71972],[82.93201,50.69814],[82.94163,50.69015],[82.96154,50.68841],[82.97218,50.68254],[82.96017,50.66143],[82.94197,50.66056],[82.93837,50.65349],[82.91553,50.64652],[82.89597,50.65305],[82.87176,50.64696],[82.86524,50.65566],[82.80979,50.65153],[82.80327,50.64326],[82.78919,50.63901],[82.76739,50.60863],[82.6825,50.56983],[82.66946,50.57539],[82.66088,50.57026],[82.65324,50.5767],[82.628,50.57343],[82.61195,50.57484],[82.60028,50.58127],[82.59479,50.57893],[82.59788,50.5616],[82.58968,50.54772],[82.56891,50.53473],[82.54583,50.52681],[82.54947,50.52205],[82.5614,50.51839],[82.55595,50.51138],[82.55925,50.50565],[82.57101,50.50682],[82.56753,50.50314],[82.57153,50.4938],[82.53496,50.4492],[82.5341,50.44417],[82.50647,50.42285],[82.48758,50.4165],[82.50029,50.38171],[82.46853,50.35203],[82.45394,50.35762],[82.44879,50.38094],[82.44141,50.37656],[82.42115,50.37788],[82.41446,50.3921],[82.40982,50.38652],[82.40948,50.36145],[82.39626,50.35477],[82.38167,50.35619],[82.36811,50.36167],[82.36931,50.37087],[82.32784,50.37482],[82.31149,50.39877],[82.25698,50.373],[82.13774,50.3913],[82.11189,50.38908],[82.10953,50.38606],[82.09742,50.39182],[82.09044,50.39079],[82.0788,50.3838],[82.02733,50.32323],[82.0472,50.31405],[82.02744,50.27343],[82.03165,50.24622],[82.00418,50.22881],[81.98977,50.22459],[81.98015,50.21305]]]]}},
{"type":"Feature","properties":{"code":"ZAI","name":"Зайсанский район"},"geometry":{"type":"MultiPolygon","coordinates":[[[[84.1848,47.84842],[84.23587,47.75739],[84.31595,47.72766],[84.34299,47.69726],[84.31483,47.66391],[84.28848,47.65013],[84.2566,47.58761],[84.27767,47.52424],[84.28007,47.43349],[84.27226,47.42179],[84.29415,47.40355],[84.26509,47.37903],[84.28801,47.32818],[84.29955,47.33612],[84.31852,47.31852],[84.26638,47.22502],[84.29887,47.20919],[84.32483,47.18572],[84.32303,47.18117],[84.33101,47.17239],[84.34809,47.16871],[84.35209,47.15712],[84.3604,47.1565],[84.3639,47.14665],[84.36101,47.14501],[84.36143,47.13833],[84.37354,47.13251],[84.37787,47.1214],[84.36672,47.11723],[84.36277,47.09896],[84.365,47.03819],[84.37346,47.02041],[84.40343,47.00392],[84.436,47.00898],[84.45802,47.00866],[84.46025,46.99327],[84.48431,46.99258],[84.48918,46.98615],[84.51019,46.97499],[84.51405,46.98016],[84.54226,46.98363],[84.55425,46.99329],[84.57944,46.99964],[84.61363,46.99865],[84.61209,46.99668],[84.61612,46.99624],[84.62348,46.99837],[84.63054,46.9947],[84.65871,47.00155],[84.67039,46.99836],[84.67914,47.00462],[84.6927,47.00396],[84.70974,47.00949],[84.71849,47.00572],[84.75918,47.00465],[84.76004,46.9992],[84.77568,46.99184],[84.78231,46.97369],[84.81384,46.95734],[84.82364,46.96036],[84.84009,46.95711],[84.84727,46.95382],[84.85086,46.9476],[84.85812,46.94694],[84.86125,46.94407],[84.85833,46.9391],[84.85849,46.92785],[84.86884,46.92227],[84.87768,46.91148],[84.90566,46.89847],[84.91378,46.89031],[84.91553,46.88003],[84.93011,46.87566],[84.94301,46.86326],[84.952,46.86332],[84.96532,46.86753],[84.96584,46.87267],[84.97955,46.87355],[84.97334,46.88736],[84.97914,46.89202],[84.98288,46.91511],[84.98848,46.91859],[85.00126,46.92115],[85.00201,46.9251],[85.00615,46.92646],[85.03358,46.92173],[85.04925,46.92857],[85.06633,46.92566],[85.06797,46.92866],[85.0781,46.93096],[85.07763,46.93759],[85.0826,46.94048],[85.08523,46.94963],[85.07884,46.95789],[85.08993,46.95773],[85.09733,46.96541],[85.10874,46.96739],[85.11312,46.97116],[85.11912,46.96993],[85.12796,46.9753],[85.12842,46.98106],[85.13454,46.98156],[85.1455,46.98929],[85.16623,46.98648],[85.17597,46.99217],[85.17861,46.99674],[85.17561,47.00345],[85.18779,47.00668],[85.18842,47.01011],[85.1941,47.01264],[85.20453,47.03237],[85.21178,47.03928],[85.21068,47.04415],[85.2169,47.05237],[85.23381,47.04923],[85.24084,47.05374],[85.25347,47.05307],[85.26146,47.04988],[85.27482,47.0564],[85.2724,47.06395],[85.27636,47.06877],[85.28234,47.06347],[85.29936,47.06498],[85.30696,47.05086],[85.32352,47.04292],[85.33956,47.04809],[85.34187,47.05408],[85.34571,47.05484],[85.36646,47.05244],[85.38242,47.04604],[85.40593,47.05167],[85.41252,47.05995],[85.42406,47.06062],[85.4301,47.05721],[85.43832,47.06051],[85.45335,47.06037],[85.46035,47.06399],[85.4811,47.05312],[85.49596,47.05295],[85.50526,47.05625],[85.53466,47.0491],[85.53762,47.05697],[85.5332,47.06983],[85.53509,47.07456],[85.54436,47.07959],[85.54092,47.08415],[85.54144,47.09327],[85.54813,47.10612],[85.55826,47.1164],[85.57434,47.12583],[85.57959,47.14163],[85.6102,47.16049],[85.63232,47.18114],[85.64056,47.18461],[85.64993,47.20557],[85.66179,47.21439],[85.67814,47.2192],[85.68621,47.22994],[85.68765,47.24513],[85.68005,47.25088],[85.69554,47.27249],[85.69412,47.27872],[85.69865,47.28871],[85.6838,47.30515],[85.68467,47.30878],[85.67485,47.31139],[85.67293,47.32086],[85.68564,47.33002],[85.68792,47.36519],[85.69808,47.367],[85.70296,47.38007],[85.68509,47.39718],[85.68318,47.43025],[85.67549,47.43631],[85.66912,47.44717],[85.64992,47.45324],[85.63952,47.46381],[85.63728,47.47209],[85.63237,47.47412],[85.62647,47.4853],[85.61511,47.49175],[85.60783,47.50892],[85.61027,47.51517],[85.60911,47.53286],[85.61434,47.54009],[85.5474,47.98222],[85.53972,47.98521],[85.53732,47.99202],[85.54279,48.00936],[85.53735,48.0217],[85.52981,48.02447],[85.50513,48.02076],[85.49403,48.01199],[85.47476,48.00844],[85.42862,48.02305],[85.42128,48.02002],[85.41278,48.00704],[85.40194,48.00655],[85.37338,47.99296],[85.3788,47.9803],[85.37262,47.97628],[85.36308,47.97819],[85.34578,47.99551],[85.34573,48.00756],[85.32849,48.01058],[85.30971,48.00812],[85.30215,48.01084],[85.29413,47.9995],[85.27443,47.99822],[85.25461,47.99052],[85.24599,47.99573],[85.24027,48.00397],[85.23234,48.00582],[85.22393,48.0045],[85.20842,47.99572],[85.1609,47.99688],[85.15582,47.98742],[85.16337,47.97685],[85.16237,47.97066],[85.15191,47.96816],[85.132,47.97066],[85.1196,47.958],[85.08459,47.96207],[85.07011,47.95182],[85.05162,47.95688],[85.04907,47.97125],[85.03435,47.97205],[85.02666,47.96808],[85.01317,47.9495],[85.00444,47.94561],[84.99912,47.93828],[84.99617,47.92534],[84.99239,47.92258],[84.97742,47.92097],[84.96453,47.93081],[84.95354,47.93239],[84.93454,47.92316],[84.92802,47.91211],[84.9009,47.91488],[84.89832,47.90947],[84.90342,47.90093],[84.90231,47.89372],[84.87362,47.89353],[84.86682,47.88736],[84.87315,47.87257],[84.8701,47.86886],[84.86027,47.86827],[84.85547,47.87618],[84.84979,47.87765],[84.8324,47.8693],[84.80927,47.86757],[84.78396,47.85922],[84.77445,47.84976],[84.76764,47.85244],[84.76337,47.86423],[84.75619,47.86701],[84.72333,47.84838],[84.71468,47.84801],[84.7006,47.85944],[84.68597,47.84966],[84.66606,47.85451],[84.65023,47.84402],[84.65186,47.83481],[84.64849,47.82989],[84.64958,47.82146],[84.64587,47.80893],[84.64031,47.80694],[84.62834,47.81151],[84.6152,47.80425],[84.59964,47.80046],[84.57713,47.79845],[84.55649,47.80591],[84.54016,47.80381],[84.52732,47.80622],[84.52099,47.81182],[84.52347,47.81915],[84.52044,47.82303],[84.49521,47.81373],[84.49008,47.81638],[84.48733,47.8255],[84.48301,47.82691],[84.47147,47.8173],[84.46873,47.80808],[84.46083,47.80693],[84.45534,47.81131],[84.4574,47.81846],[84.45362,47.82215],[84.42203,47.82353],[84.41071,47.82676],[84.39886,47.83701],[84.36625,47.82503],[84.35955,47.82676],[84.35698,47.83367],[84.34307,47.84012],[84.1848,47.84842]]]]}},
{"type":"Feature","properties":{"code":"KAT","name":"Катон-Карагайский район"},"geometry":{"type":"MultiPolygon","coordinates":[[[[84.8539,49.69659],[84.94379,49.61752],[84.94371,49.58654],[84.93198,49.60267],[84.93378,49.58996],[84.92853,49.5855],[84.97101,49.49935],[85.01427,49.46188],[85.03899,49.42973],[85.05409,49.3703],[85.07126,49.32915],[85.10216,49.2911],[85.14404,49.25347],[85.14404,49.22388],[85.09812,49.04816],[85.15108,49.04754],[85.18267,49.02982],[85.23726,49.02087],[85.25167,49.00488],[85.26837,49.00947],[85.28777,49.00258],[85.28944,48.99604],[85.33785,49.00914],[85.34969,49.01676],[85.39866,49.01437],[85.47277,49.01764],[85.51118,49.02591],[85.51779,49.0341],[85.52796,49.03598],[85.56281,49.03097],[85.5756,49.01491],[85.58058,48.99559],[85.57397,48.98562],[85.55603,48.97143],[85.54916,48.94815],[85.55397,48.93479],[85.53946,48.90998],[85.58504,48.9049],[85.62701,48.91065],[85.68933,48.94973],[85.70263,48.96168],[85.74494,48.96348],[85.75696,48.96872],[85.77687,48.97988],[85.78812,49.00038],[85.80176,49.00686],[85.82193,49.00781],[85.83979,49.01598],[85.8615,49.01811],[85.89128,49.00832],[85.93916,49.0397],[85.98287,49.05143],[85.99366,49.05033],[86.02789,49.03372],[86.02453,49.02345],[86.02784,49.0081],[86.03154,49.00697],[86.03731,48.99673],[86.04291,48.9954],[86.04566,48.9831],[86.08472,48.96921],[86.09214,48.9565],[86.09934,48.95147],[86.10284,48.94429],[86.10233,48.93133],[86.11038,48.92385],[86.12583,48.92126],[86.14582,48.91005],[86.16901,48.90423],[86.18193,48.90484],[86.18108,48.92314],[86.2041,48.94053],[86.20609,48.94723],[86.21994,48.95419],[86.22115,48.96188],[86.23641,48.96751],[86.24548,48.97478],[86.25758,48.9729],[86.26269,48.97535],[86.30459,48.96039],[86.32048,48.94877],[86.34828,48.95916],[86.35974,48.96029],[86.37932,48.97202],[86.39316,48.95728],[86.40657,48.95101],[86.41628,48.94001],[86.42723,48.93366],[86.44762,48.93471],[86.46886,48.93135],[86.48905,48.91701],[86.49356,48.92182],[86.50386,48.92439],[86.51892,48.93894],[86.52828,48.9417],[86.53141,48.92705],[86.55307,48.92468],[86.5656,48.93471],[86.57794,48.93116],[86.59195,48.93254],[86.60333,48.94536],[86.61387,48.95128],[86.63965,48.95632],[86.65848,48.9526],[86.67758,48.94448],[86.70105,48.94398],[86.70713,48.93771],[86.71742,48.93691],[86.71962,48.9259],[86.72754,48.91919],[86.74053,48.91528],[86.73022,48.93992],[86.73151,48.94945],[86.72671,48.95115],[86.73152,48.97156],[86.72643,48.97915],[86.73033,48.98378],[86.72639,48.98799],[86.72991,48.98955],[86.72878,48.99415],[86.74129,49.00579],[86.74976,49.00932],[86.74965,49.01503],[86.76288,49.02076],[86.76627,49.02561],[86.78089,49.02731],[86.79494,49.0391],[86.80077,49.03893],[86.83446,49.05247],[86.83935,49.06044],[86.8475,49.0653],[86.84211,49.08757],[86.84354,49.10063],[86.86231,49.11756],[86.87453,49.12052],[86.8754,49.1255],[86.88716,49.13258],[86.90686,49.1357],[86.94369,49.13002],[86.96881,49.13344],[86.99931,49.14267],[87.04982,49.13005],[87.05984,49.12992],[87.06717,49.1354],[87.08101,49.13088],[87.08973,49.13804],[87.10095,49.14035],[87.10007,49.14681],[87.10414,49.15112],[87.14183,49.15237],[87.15151,49.15075],[87.15326,49.14521],[87.16867,49.13888],[87.2,49.14294],[87.21499,49.13034],[87.21355,49.12278],[87.22737,49.11946],[87.2303,49.1144],[87.25352,49.11171],[87.25999,49.11484],[87.27236,49.11389],[87.2775,49.11773],[87.28634,49.11577],[87.29704,49.13245],[87.29406,49.13991],[87.29941,49.14913],[87.28996,49.156],[87.29313,49.16316],[87.30381,49.17273],[87.30076,49.18405],[87.29269,49.1901],[87.29159,49.20177],[87.31563,49.23108],[87.30366,49.23528],[87.26932,49.23257],[87.25526,49.24017],[87.2433,49.23787],[87.23202,49.24483],[87.19832,49.2525],[87.17564,49.24675],[87.16578,49.25017],[87.14172,49.24591],[87.12827,49.25605],[87.09471,49.25206],[87.06035,49.25461],[87.04717,49.25048],[87.03072,49.25288],[87.01853,49.26902],[87.00605,49.29886],[86.98214,49.30089],[86.97099,49.30585],[86.95897,49.31762],[86.96271,49.32541],[86.95413,49.33524],[86.94037,49.33972],[86.92647,49.34888],[86.92497,49.35825],[86.9271,49.35978],[86.9231,49.36233],[86.92472,49.36982],[86.93678,49.36892],[86.9492,49.37994],[86.94507,49.39148],[86.93627,49.40019],[86.94777,49.40642],[86.94733,49.40962],[86.93012,49.42006],[86.91444,49.41664],[86.9065,49.42764],[86.86831,49.43482],[86.86378,49.44118],[86.85108,49.44459],[86.84705,49.4517],[86.83338,49.45225],[86.83866,49.46272],[86.83095,49.46975],[86.83426,49.47713],[86.82972,49.48174],[86.85544,49.49934],[86.85105,49.51062],[86.82482,49.52303],[86.81485,49.53232],[86.82736,49.53874],[86.82717,49.54543],[86.80443,49.54916],[86.79837,49.55412],[86.79023,49.55277],[86.77471,49.55755],[86.77719,49.56348],[86.76457,49.56184],[86.75963,49.56369],[86.7588,49.56877],[86.73951,49.57117],[86.72138,49.56822],[86.6824,49.56906],[86.68097,49.5638],[86.6659,49.56027],[86.62956,49.56568],[86.61825,49.57038],[86.60249,49.60555],[86.59758,49.60952],[86.60858,49.6171],[86.61555,49.62852],[86.63569,49.63193],[86.65916,49.64379],[86.65326,49.65249],[86.66323,49.65681],[86.66573,49.6655],[86.68191,49.66866],[86.68424,49.67515],[86.70067,49.68065],[86.69972,49.68497],[86.70947,49.68726],[86.72419,49.67665],[86.72941,49.6782],[86.73842,49.68842],[86.74905,49.69077],[86.75796,49.68779],[86.76772,49.68913],[86.77892,49.69602],[86.77846,49.70315],[86.77093,49.71052],[86.76634,49.72494],[86.75684,49.73222],[86.75802,49.73713],[86.753,49.74239],[86.76458,49.75023],[86.76447,49.75814],[86.77475,49.768],[86.77603,49.77755],[86.78353,49.79181],[86.7811,49.79435],[86.76387,49.79039],[86.7551,49.79178],[86.74651,49.7866],[86.73586,49.78715],[86.72851,49.79286],[86.71534,49.79422],[86.71083,49.80121],[86.68837,49.8109],[86.67621,49.80758],[86.65388,49.81256],[86.64561,49.80653],[86.62225,49.80527],[86.61528,49.80071],[86.61004,49.80463],[86.60119,49.80312],[86.58991,49.80707],[86.5902,49.80097],[86.59694,49.79599],[86.59511,49.7911],[86.60434,49.78363],[86.60295,49.77987],[86.6105,49.76893],[86.60241,49.74405],[86.58601,49.73967],[86.57842,49.73392],[86.58229,49.72414],[86.56431,49.71458],[86.52656,49.70204],[86.51828,49.69333],[86.50924,49.69095],[86.50836,49.67822],[86.48845,49.65791],[86.45627,49.63832],[86.44775,49.63777],[86.42861,49.62935],[86.41944,49.60831],[86.38678,49.60137],[86.37135,49.59362],[86.36182,49.5924],[86.3314,49.5932],[86.31591,49.59928],[86.28661,49.59185],[86.2716,49.5827],[86.26625,49.56862],[86.267,49.54654],[86.25504,49.53872],[86.25383,49.5339],[86.23941,49.52544],[86.23875,49.51768],[86.22827,49.49519],[86.21716,49.47776],[86.20204,49.46611],[86.17391,49.47898],[86.17061,49.49764],[86.16634,49.5033],[86.11292,49.52438],[86.0372,49.52185],[86.03327,49.51678],[86.03284,49.50807],[86.02451,49.50373],[85.98646,49.48895],[85.96899,49.48712],[85.95339,49.50275],[85.95504,49.50756],[85.94444,49.51329],[85.93783,49.5279],[85.92941,49.53587],[85.94945,49.55378],[85.94428,49.56133],[85.92793,49.5588],[85.91727,49.56517],[85.89018,49.56196],[85.88374,49.56691],[85.84106,49.54765],[85.82622,49.54425],[85.816,49.54699],[85.8055,49.55735],[85.80991,49.56588],[85.78061,49.575],[85.76178,49.57311],[85.75689,49.57715],[85.69393,49.56412],[85.68413,49.55894],[85.67868,49.55087],[85.62723,49.57779],[85.62284,49.58588],[85.62342,49.59872],[85.59912,49.61256],[85.5837,49.61367],[85.57395,49.60412],[85.56674,49.60308],[85.55329,49.59441],[85.53254,49.59849],[85.52388,49.59568],[85.49021,49.59813],[85.38844,49.6348],[85.32126,49.59085],[85.25752,49.58852],[85.25865,49.59922],[85.25498,49.604],[85.26467,49.61979],[85.25451,49.62726],[85.21068,49.62735],[85.21635,49.63702],[85.20533,49.64808],[85.20363,49.65744],[85.19644,49.66061],[85.16507,49.66025],[85.14926,49.66607],[85.12147,49.66686],[85.1186,49.66628],[85.1162,49.65452],[85.10862,49.66235],[85.09244,49.66728],[85.07185,49.67208],[85.05353,49.66981],[85.04467,49.67458],[85.04051,49.68286],[85.03105,49.68588],[85.01217,49.67491],[84.98839,49.66839],[84.97712,49.67135],[84.96076,49.68845],[84.94548,49.69625],[84.90373,49.69608],[84.8972,49.69974],[84.8539,49.69659]]]]}},
{"type":"Feature","properties":{"code":"KUR","name":"Курчумский район"},"geometry":{"type":"MultiPolygon","coordinates":[[[[83.42142,48.52365],[83.42331,48.50387],[83.43773,48.47065],[83.48579,48.43786],[83.55892,48.41713],[83.61557,48.39091],[83.61969,48.36788],[83.5961,48.34829],[83.55796,48.33797],[83.51814,48.31755],[83.47806,48.28522],[83.4773,48.27997],[83.49099,48.27365],[83.49236,48.26914],[83.48863,48.26086],[83.46588,48.25406],[83.46957,48.2404],[83.42997,48.23461],[83.45564,48.21503],[83.68389,48.08335],[84.1848,47.84842],[84.34307,47.84012],[84.35698,47.83367],[84.35955,47.82676],[84.36625,47.82503],[84.39886,47.83701],[84.41071,47.82676],[84.42203,47.82353],[84.45362,47.82215],[84.4574,47.81846],[84.45534,47.81131],[84.46083,47.80693],[84.46873,47.80808],[84.47147,47.8173],[84.48301,47.82691],[84.48733,47.8255],[84.49008,47.81638],[84.49521,47.81373],[84.52044,47.82303],[84.55078,47.9214],[84.92843,48.17341],[84.98335,48.22222],[84.95482,48.23312],[84.94318,48.23194],[84.86022,48.24511],[84.77084,48.25116],[84.75955,48.26508],[84.74399,48.27635],[84.66863,48.32312],[84.67263,48.33725],[84.67877,48.34453],[84.71402,48.34758],[84.73468,48.35394],[84.75202,48.36492],[84.77166,48.36935],[84.7864,48.36829],[84.84019,48.38847],[84.85869,48.40214],[84.88743,48.43711],[84.9238,48.45895],[84.92576,48.46269],[84.92226,48.49022],[84.95453,48.51661],[85.19897,48.59659],[85.34179,48.6565],[85.51483,48.82133],[85.62701,48.91065],[85.58504,48.9049],[85.53946,48.90998],[85.55397,48.93479],[85.54916,48.94815],[85.55603,48.97143],[85.57397,48.98562],[85.58058,48.99559],[85.5756,49.01491],[85.56281,49.03097],[85.54393,49.03559],[85.51779,49.0341],[85.51118,49.02591],[85.47277,49.01764],[85.39866,49.01437],[85.34969,49.01676],[85.33785,49.00914],[85.28944,48.99604],[85.28777,49.00258],[85.26837,49.00947],[85.25167,49.00488],[85.23726,49.02087],[85.18267,49.02982],[85.15108,49.04754],[85.09812,49.04816],[85.08224,49.01885],[85.02148,48.9825],[84.97148,48.98332],[84.86548,48.97658],[84.8157,48.97929],[84.72408,48.99643],[84.68777,48.9676],[84.66296,48.98117],[84.64219,48.9825],[84.58915,49.00871],[84.56044,49.01403],[84.55091,49.02647],[84.52336,49.01899],[84.48044,49.02737],[84.45491,49.02886],[84.43152,49.04144],[84.39723,49.03421],[84.3668,48.99821],[84.3565,48.98999],[84.3459,48.97106],[84.31818,48.96641],[84.30093,48.97115],[84.29355,48.97695],[84.2702,48.97796],[84.22411,48.96636],[84.21355,48.96923],[84.14515,48.97058],[84.1575,48.98833],[84.19525,49.01409],[84.189,49.0198],[84.19021,49.02355],[84.2018,49.02744],[84.19847,49.03256],[84.20059,49.051],[84.18986,49.06178],[84.18956,49.08002],[84.18051,49.08685],[84.18927,49.11727],[84.14257,49.10062],[84.00026,49.07049],[83.96473,49.0507],[83.92267,49.03449],[83.81676,49.02763],[83.76852,49.01097],[83.74809,48.99835],[83.66312,48.96286],[83.62999,48.95227],[83.59325,48.95227],[83.54776,48.93321],[83.52974,48.91844],[83.48373,48.86415],[83.46118,48.82514],[83.44262,48.77156],[83.43549,48.7087],[83.45152,48.68141],[83.47814,48.61306],[83.44339,48.57763],[83.42812,48.54911],[83.42142,48.52365]]]]}},
{"type":"Feature","properties":{"code":"MAR","name":"Маркакольский район"},"geometry":{"type":"MultiPolygon","coordinates":[[[[84.52044,47.82303],[84.52347,47.81915],[84.52099,47.81182],[84.52732,47.80622],[84.54016,47.80381],[84.55649,47.80591],[84.57713,47.79845],[84.59964,47.80046],[84.6152,47.80425],[84.62834,47.81151],[84.64031,47.80694],[84.64587,47.80893],[84.64958,47.82146],[84.64849,47.82989],[84.65186,47.83481],[84.65023,47.84402],[84.66606,47.85451],[84.68597,47.84966],[84.7006,47.85944],[84.71468,47.84801],[84.72333,47.84838],[84.75619,47.86701],[84.76337,47.86423],[84.76764,47.85244],[84.77445,47.84976],[84.78396,47.85922],[84.80927,47.86757],[84.8324,47.8693],[84.84979,47.87765],[84.85547,47.87618],[84.86027,47.86827],[84.8701,47.86886],[84.87315,47.87257],[84.86682,47.88736],[84.87362,47.89353],[84.90231,47.89372],[84.90342,47.90093],[84.89832,47.90947],[84.9009,47.91488],[84.92802,47.91211],[84.93454,47.92316],[84.95354,47.93239],[84.96453,47.93081],[84.97742,47.92097],[84.99239,47.92258],[84.99617,47.92534],[84.99912,47.93828],[85.00444,47.94561],[85.01317,47.9495],[85.02666,47.96808],[85.04096,47.97338],[85.04907,47.97125],[85.04951,47.96082],[85.05775,47.95421],[85.07232,47.95237],[85.08459,47.96207],[85.0899,47.96249],[85.1196,47.958],[85.132,47.97066],[85.15191,47.96816],[85.16237,47.97066],[85.16337,47.97685],[85.15582,47.98742],[85.1609,47.99688],[85.20842,47.99572],[85.22393,48.0045],[85.23234,48.00582],[85.24027,48.00397],[85.24599,47.99573],[85.25461,47.99052],[85.27443,47.99822],[85.29413,47.9995],[85.30215,48.01084],[85.30971,48.00812],[85.32849,48.01058],[85.34573,48.00756],[85.34578,47.99551],[85.36308,47.97819],[85.37262,47.97628],[85.3788,47.9803],[85.37338,47.99296],[85.40194,48.00655],[85.41278,48.00704],[85.42128,48.02002],[85.42862,48.02305],[85.47476,48.00844],[85.49403,48.01199],[85.50513,48.02076],[85.52681,48.02389],[85.53268,48.03056],[85.52892,48.03511],[85.53145,48.03897],[85.52927,48.04355],[85.53645,48.04583],[85.5346,48.04924],[85.5419,48.05346],[85.53867,48.05919],[85.5425,48.06271],[85.53452,48.07082],[85.54151,48.07426],[85.54036,48.07758],[85.54829,48.07932],[85.54474,48.08309],[85.54508,48.08928],[85.55009,48.0955],[85.54324,48.09791],[85.54912,48.10164],[85.54494,48.10518],[85.55458,48.10653],[85.54905,48.10778],[85.55087,48.10999],[85.54682,48.11471],[85.55153,48.1153],[85.54928,48.1276],[85.55361,48.12943],[85.55836,48.12568],[85.55855,48.13168],[85.56396,48.13256],[85.5536,48.1394],[85.55758,48.14483],[85.56333,48.14611],[85.55928,48.14905],[85.56413,48.14933],[85.56253,48.15281],[85.56798,48.15749],[85.57448,48.15678],[85.57641,48.16591],[85.58129,48.16752],[85.58352,48.17172],[85.58049,48.17509],[85.58502,48.17729],[85.58281,48.17835],[85.58719,48.18467],[85.58345,48.18543],[85.58343,48.19038],[85.59041,48.18997],[85.5924,48.19456],[85.58858,48.19656],[85.60124,48.19831],[85.60727,48.20446],[85.62354,48.20274],[85.62276,48.21009],[85.62667,48.21189],[85.63529,48.22787],[85.63268,48.22807],[85.63268,48.23348],[85.64475,48.23661],[85.65104,48.24205],[85.6507,48.24648],[85.65941,48.24182],[85.66452,48.2516],[85.66289,48.25488],[85.67555,48.26411],[85.67319,48.26757],[85.67478,48.27245],[85.68121,48.27497],[85.67838,48.2766],[85.68246,48.27871],[85.68233,48.29193],[85.69031,48.2962],[85.68915,48.30031],[85.69445,48.30072],[85.69227,48.30349],[85.69435,48.30684],[85.68915,48.30877],[85.69332,48.31204],[85.68994,48.31394],[85.69333,48.31853],[85.68939,48.32118],[85.69097,48.32898],[85.69612,48.33255],[85.69507,48.33521],[85.70258,48.33829],[85.70402,48.34441],[85.71422,48.34938],[85.71015,48.35355],[85.71553,48.35757],[85.7134,48.35979],[85.71709,48.36497],[85.72555,48.36661],[85.72535,48.37287],[85.72874,48.37361],[85.72688,48.37572],[85.74167,48.38142],[85.74645,48.39022],[85.75269,48.38964],[85.75059,48.39253],[85.75591,48.40295],[85.77456,48.40882],[85.78743,48.41745],[85.8058,48.4157],[85.82953,48.42191],[85.83753,48.42753],[85.86689,48.43175],[85.88541,48.42912],[85.91173,48.43621],[86.05327,48.43886],[86.23227,48.43222],[86.25102,48.45257],[86.25948,48.4541],[86.26772,48.45161],[86.27246,48.45869],[86.28137,48.46398],[86.28267,48.4723],[86.29687,48.47702],[86.3007,48.49054],[86.31823,48.48764],[86.32842,48.4942],[86.33161,48.49046],[86.34687,48.49304],[86.35947,48.49073],[86.36855,48.4929],[86.36812,48.50099],[86.37499,48.50137],[86.3783,48.49888],[86.37886,48.49262],[86.38879,48.49079],[86.39575,48.48114],[86.40698,48.47865],[86.58085,48.53911],[86.58417,48.53745],[86.5922,48.54494],[86.59153,48.55007],[86.59743,48.55827],[86.59441,48.56607],[86.59702,48.57232],[86.59392,48.57497],[86.59772,48.57616],[86.60138,48.58452],[86.61009,48.58787],[86.61192,48.59714],[86.62914,48.60495],[86.63434,48.6127],[86.63502,48.62646],[86.66866,48.63114],[86.68895,48.64001],[86.69177,48.64319],[86.68901,48.64833],[86.69876,48.65519],[86.70047,48.66894],[86.72604,48.68316],[86.7399,48.69817],[86.773,48.7204],[86.77784,48.73549],[86.772,48.74755],[86.77346,48.75012],[86.75132,48.77772],[86.75108,48.78209],[86.75331,48.7877],[86.75736,48.78922],[86.7611,48.8043],[86.81717,48.83073],[86.81915,48.84107],[86.8165,48.85631],[86.79798,48.86974],[86.78392,48.87485],[86.77516,48.88947],[86.75138,48.89607],[86.75134,48.90333],[86.74053,48.91528],[86.72992,48.91761],[86.7198,48.9256],[86.71742,48.93691],[86.70713,48.93771],[86.70105,48.94398],[86.67758,48.94448],[86.65848,48.9526],[86.63965,48.95632],[86.61387,48.95128],[86.60333,48.94536],[86.59195,48.93254],[86.57794,48.93116],[86.5656,48.93471],[86.55307,48.92468],[86.53141,48.92705],[86.52828,48.9417],[86.51892,48.93894],[86.50386,48.92439],[86.49356,48.92182],[86.48905,48.91701],[86.46886,48.93135],[86.44762,48.93471],[86.42723,48.93366],[86.41628,48.94001],[86.40657,48.95101],[86.39316,48.95728],[86.37932,48.97202],[86.35974,48.96029],[86.34828,48.95916],[86.32048,48.94877],[86.30459,48.96039],[86.29229,48.96298],[86.27084,48.9738],[86.24635,48.97495],[86.23641,48.96751],[86.22115,48.96188],[86.21994,48.95419],[86.20609,48.94723],[86.2041,48.94053],[86.18125,48.92335],[86.18193,48.90484],[86.16939,48.90419],[86.14582,48.91005],[86.12583,48.92126],[86.11038,48.92385],[86.10233,48.93133],[86.10284,48.94429],[86.09934,48.95147],[86.09214,48.9565],[86.08472,48.96921],[86.04566,48.9831],[86.04291,48.9954],[86.03731,48.99673],[86.03154,49.00697],[86.02784,49.0081],[86.02453,49.02345],[86.02789,49.03372],[85.99366,49.05033],[85.9775,49.05075],[85.93916,49.0397],[85.89128,49.00832],[85.8615,49.01811],[85.83979,49.01598],[85.82193,49.00781],[85.80176,49.00686],[85.78812,49.00038],[85.77687,48.97988],[85.75696,48.96872],[85.74494,48.96348],[85.70263,48.96168],[85.68933,48.94973],[85.62701,48.91065],[85.51483,48.82133],[85.34179,48.6565],[85.19897,48.59659],[84.95453,48.51661],[84.92226,48.49022],[84.92576,48.46269],[84.9238,48.45895],[84.88743,48.43711],[84.85869,48.40214],[84.84019,48.38847],[84.7864,48.36829],[84.77166,48.36935],[84.75202,48.36492],[84.73468,48.35394],[84.71402,48.34758],[84.67877,48.34453],[84.67263,48.33725],[84.66863,48.32312],[84.74399,48.27635],[84.75955,48.26508],[84.77084,48.25116],[84.86022,48.24511],[84.94318,48.23194],[84.95482,48.23312],[84.98335,48.22222],[84.92843,48.17341],[84.55078,47.9214],[84.52044,47.82303]]]]}},
{"type":"Feature","properties":{"code":"SAM","name":"район Самар"},"geometry":{"type":"MultiPolygon","coordinates":[[[[82.66905,49.2272],[82.69049,49.22135],[82.67941,49.1932],[82.68499,49.18204],[82.68362,49.15522],[82.70388,49.12843],[82.70525,49.09978],[82.69941,49.08961],[82.69821,49.07162],[82.70336,49.05514],[82.7231,49.03522],[82.71928,49.0276],[82.70911,49.02965],[82.75872,48.98884],[82.76748,48.97126],[82.7922,48.97002],[82.814,48.97402],[82.8546,48.97194],[82.92013,48.94515],[82.92386,48.92707],[82.9212,48.90868],[82.89579,48.88492],[82.84524,48.84324],[82.81097,48.854],[82.81421,48.84671],[82.82238,48.84148],[82.82183,48.83792],[82.82868,48.83202],[82.83203,48.824],[82.82382,48.82098],[82.82173,48.81716],[82.8264,48.81251],[82.82511,48.79568],[82.79812,48.77776],[82.797,48.76797],[82.82546,48.76885],[82.86713,48.74419],[82.88455,48.76207],[82.92824,48.75241],[82.91579,48.76027],[82.90049,48.7619],[82.90145,48.76615],[82.89588,48.76839],[82.90118,48.77193],[82.89734,48.77568],[82.87198,48.78198],[82.88586,48.81705],[82.88513,48.82972],[82.94965,48.81698],[82.94098,48.80343],[82.91446,48.77542],[82.90607,48.77292],[82.94337,48.76311],[82.93888,48.75707],[82.9548,48.74582],[82.9445,48.7482],[82.92386,48.72978],[82.94684,48.72581],[82.96105,48.72978],[82.97905,48.72394],[82.97862,48.73635],[82.98364,48.74546],[82.97989,48.76717],[83.03061,48.75163],[83.04535,48.75619],[83.16882,48.76439],[83.19222,48.71779],[83.18016,48.70687],[83.17036,48.6997],[83.12028,48.68971],[83.10686,48.7139],[83.10024,48.70311],[83.03342,48.70367],[83.02334,48.67968],[83.03124,48.67729],[83.0284,48.66965],[83.04055,48.65897],[83.06179,48.65429],[83.06082,48.63925],[83.01362,48.6448],[83.00806,48.63322],[83.01405,48.62617],[83.01932,48.62597],[83.01928,48.62826],[83.02853,48.6244],[83.03202,48.62619],[83.03098,48.62409],[83.03826,48.62093],[83.06256,48.62755],[83.11552,48.61518],[83.13303,48.63614],[83.13601,48.65447],[83.14068,48.6559],[83.12725,48.67183],[83.12546,48.68389],[83.15337,48.68902],[83.15758,48.68474],[83.15288,48.67519],[83.15466,48.67191],[83.1771,48.68036],[83.18736,48.67583],[83.1944,48.65919],[83.2059,48.64902],[83.20189,48.63312],[83.19273,48.63667],[83.19047,48.62836],[83.20762,48.59466],[83.21513,48.58595],[83.27285,48.56326],[83.31559,48.55298],[83.32323,48.53661],[83.34761,48.52763],[83.42142,48.52365],[83.42812,48.54911],[83.44339,48.57763],[83.47814,48.61306],[83.45152,48.68141],[83.43549,48.7087],[83.44262,48.77156],[83.46118,48.82514],[83.48373,48.86415],[83.52974,48.91844],[83.54776,48.93321],[83.59325,48.95227],[83.62999,48.95227],[83.66312,48.96286],[83.74809,48.99835],[83.76852,49.01097],[83.81676,49.02763],[83.92267,49.03449],[83.96473,49.0507],[84.00026,49.07049],[84.14257,49.10062],[84.18927,49.11727],[84.20557,49.12366],[84.23132,49.14039],[84.23716,49.15488],[84.24145,49.18956],[84.23544,49.20044],[84.18205,49.24372],[84.14154,49.27184],[84.12025,49.28158],[84.06927,49.31382],[84.02301,49.34571],[83.99786,49.36692],[83.96091,49.38758],[83.91568,49.40515],[83.88261,49.43457],[83.80401,49.45262],[83.75365,49.46782],[83.65299,49.48697],[83.61016,49.47136],[83.61003,49.46662],[83.61591,49.46327],[83.61982,49.45195],[83.62475,49.44865],[83.61626,49.44447],[83.61424,49.43947],[83.5987,49.43361],[83.60785,49.42675],[83.62016,49.42803],[83.61265,49.41625],[83.626,49.42301],[83.64445,49.41913],[83.63754,49.39394],[83.62956,49.39642],[83.609,49.38754],[83.57768,49.3883],[83.59888,49.36888],[83.59278,49.3561],[83.54476,49.3438],[83.52232,49.31474],[83.49562,49.3042],[83.48635,49.26929],[83.46824,49.25164],[83.44468,49.24988],[83.42618,49.26724],[83.42365,49.26464],[83.3716,49.28469],[83.35366,49.26181],[83.31636,49.27923],[83.28435,49.28486],[83.21835,49.30923],[83.19208,49.30565],[83.15681,49.29507],[83.18174,49.26671],[83.09488,49.2387],[83.03935,49.24926],[83.02956,49.228],[83.06085,49.17466],[83.00853,49.16922],[82.96858,49.17],[82.97017,49.18095],[82.94154,49.17281],[82.93425,49.17771],[82.91461,49.18267],[82.90197,49.18377],[82.8946,49.17976],[82.88138,49.18942],[82.88691,49.19647],[82.88562,49.1989],[82.87273,49.19542],[82.86623,49.20361],[82.84651,49.20432],[82.84766,49.20715],[82.84084,49.21073],[82.83563,49.20829],[82.83771,49.20132],[82.83305,49.19766],[82.83097,49.20148],[82.82505,49.20062],[82.82228,49.20464],[82.82299,49.20194],[82.81754,49.19845],[82.80494,49.19557],[82.8021,49.20839],[82.79661,49.20981],[82.80312,49.2163],[82.79604,49.2184],[82.7976,49.22416],[82.78996,49.22343],[82.79091,49.22898],[82.78177,49.23116],[82.77413,49.22898],[82.77065,49.23315],[82.75859,49.23651],[82.7472,49.23233],[82.7458,49.22797],[82.73684,49.22606],[82.71353,49.23747],[82.69157,49.24077],[82.67537,49.23445],[82.66905,49.2272]]]]}},
{"type":"Feature","properties":{"code":"TAR","name":"Тарбагатайский район"},"geometry":{"type":"MultiPolygon","coordinates":[[[[82.97201,47.93797],[83.0036,47.91962],[82.98703,47.90961],[82.99029,47.88245],[82.98231,47.82601],[82.97416,47.80036],[82.97725,47.78306],[83.0266,47.70503],[83.0793,47.64862],[83.07484,47.64157],[83.15689,47.63578],[83.16994,47.61565],[83.14127,47.59459],[83.11415,47.58452],[83.13183,47.56819],[83.16513,47.52288],[83.22281,47.47498],[83.23071,47.43215],[83.21285,47.4145],[83.20959,47.39556],[83.19191,47.39173],[83.17268,47.29716],[83.17732,47.25739],[83.15604,47.23042],[83.17368,47.22043],[83.19087,47.21941],[83.20645,47.21252],[83.20857,47.20939],[83.20688,47.1989],[83.21492,47.1907],[83.22177,47.18773],[83.23648,47.18907],[83.23598,47.18118],[83.2535,47.17633],[83.28009,47.1752],[83.28845,47.18199],[83.29307,47.182],[83.31812,47.17143],[83.33551,47.16997],[83.36489,47.17778],[83.36176,47.17107],[83.36453,47.16387],[83.38628,47.15022],[83.38807,47.14184],[83.40729,47.12845],[83.41373,47.12051],[83.41347,47.11599],[83.42875,47.11455],[83.42989,47.12325],[83.44076,47.12535],[83.44924,47.1314],[83.47078,47.12802],[83.46504,47.12489],[83.4649,47.11903],[83.48116,47.11753],[83.48422,47.11343],[83.4832,47.10913],[83.49386,47.10996],[83.49864,47.10737],[83.50593,47.10951],[83.51601,47.0946],[83.52686,47.09079],[83.52498,47.08522],[83.56601,47.07812],[83.5597,47.06114],[83.56511,47.05636],[83.5735,47.06029],[83.58502,47.05981],[83.60385,47.05463],[83.60739,47.04628],[83.62193,47.04845],[83.6802,47.03518],[83.69564,47.03577],[83.70061,47.02972],[83.7023,47.02072],[83.6987,47.0176],[83.70706,47.01751],[83.712,47.02389],[83.73245,47.02748],[83.74024,47.03307],[83.74783,47.03266],[83.75796,47.02419],[83.76834,47.02688],[83.78351,47.02427],[83.7937,47.01692],[83.81228,47.01644],[83.82912,47.01038],[83.83728,47.00335],[83.83499,46.99471],[83.85924,46.99794],[83.87083,46.99504],[83.87083,46.98698],[83.88576,46.98535],[83.89195,46.98837],[83.90407,46.98164],[83.90207,46.97507],[83.90441,46.97451],[83.91726,46.97289],[83.92622,46.98473],[83.93368,46.98448],[83.94721,46.99099],[83.95655,46.98938],[83.96072,46.98244],[83.96746,46.98401],[83.98652,46.99566],[84.00755,46.98927],[84.01028,46.98317],[84.01805,46.98437],[84.05078,46.96909],[84.05647,46.9687],[84.05975,46.97276],[84.07941,46.96866],[84.12462,46.96701],[84.15835,46.98086],[84.15927,46.98828],[84.16468,46.99055],[84.16572,46.99429],[84.17599,46.99262],[84.17781,46.99746],[84.19564,46.99897],[84.20114,47.00228],[84.225,46.99719],[84.23368,47.00143],[84.25203,46.99893],[84.26054,47.00292],[84.28365,46.99883],[84.28636,47.00225],[84.2991,46.99543],[84.31367,46.99988],[84.32292,46.99692],[84.32949,47.00289],[84.34852,46.99783],[84.35515,47.0005],[84.37916,46.99599],[84.39184,47.00278],[84.39933,47.00294],[84.40094,47.00562],[84.37346,47.02041],[84.365,47.03819],[84.36277,47.09896],[84.36672,47.11723],[84.37787,47.1214],[84.37354,47.13251],[84.36143,47.13833],[84.36101,47.14501],[84.3639,47.14665],[84.3604,47.1565],[84.35209,47.15712],[84.34809,47.16871],[84.33101,47.17239],[84.32303,47.18117],[84.32483,47.18572],[84.29887,47.20919],[84.26638,47.22502],[84.31852,47.31852],[84.29955,47.33612],[84.28801,47.32818],[84.26509,47.37903],[84.29415,47.40355],[84.27226,47.42179],[84.28007,47.43349],[84.27767,47.52424],[84.2566,47.58761],[84.28848,47.65013],[84.31483,47.66391],[84.34299,47.69726],[84.31595,47.72766],[84.23587,47.75739],[84.1848,47.84842],[83.68389,48.08335],[83.45564,48.21503],[83.42997,48.23461],[83.21697,48.09345],[82.99038,47.96119],[82.97201,47.93797]]]]}},
{"type":"Feature","properties":{"code":"ULA","name":"Уланский район"},"geometry":{"type":"MultiPolygon","coordinates":[[[[81.11254,50.22696],[81.12378,50.16232],[81.26915,50.13182],[81.37005,50.12699],[81.37517,50.1239],[81.36543,50.10391],[81.36655,50.09372],[81.35927,50.08382],[81.36357,50.07859],[81.35652,50.06898],[81.35853,50.06599],[81.3542,50.06272],[81.35459,50.05668],[81.34016,50.05378],[81.34574,50.05013],[81.34508,50.04212],[81.33442,50.03942],[81.3339,50.03257],[81.32759,50.0307],[81.32673,50.02722],[81.33217,50.02278],[81.33754,50.00876],[81.33766,49.98839],[81.32819,49.98687],[81.32925,49.96702],[81.37215,49.9662],[81.48068,49.94827],[81.50188,49.93735],[81.52185,49.9132],[81.57003,49.91366],[81.5608,49.89755],[81.56151,49.8905],[81.56886,49.88204],[81.61832,49.88093],[81.64195,49.87702],[81.67527,49.88233],[81.69656,49.86502],[81.6966,49.83047],[81.70254,49.81875],[81.69087,49.78307],[81.68284,49.77796],[81.64662,49.76854],[81.63884,49.76274],[81.6361,49.75605],[81.6378,49.74401],[81.65799,49.72654],[81.67543,49.72248],[81.6898,49.72635],[81.71145,49.73791],[81.71739,49.76297],[81.75378,49.7483],[81.75463,49.73506],[81.73443,49.71405],[81.72973,49.7017],[81.73628,49.69633],[81.76735,49.68393],[81.7773,49.67681],[81.7913,49.65798],[81.81485,49.6573],[81.80923,49.62176],[81.85791,49.62124],[81.91045,49.60107],[81.91273,49.5818],[81.97677,49.57183],[81.98963,49.56708],[82.00899,49.55763],[82.02056,49.52968],[82.04874,49.51396],[82.08201,49.51417],[82.08184,49.49423],[82.07305,49.47867],[82.0645,49.47342],[82.05849,49.45165],[82.07182,49.43416],[82.10139,49.43646],[82.10131,49.42134],[82.09269,49.40964],[82.13838,49.39468],[82.24532,49.37733],[82.24888,49.39062],[82.30088,49.38523],[82.30168,49.37542],[82.36208,49.34172],[82.39991,49.30259],[82.43067,49.33917],[82.52277,49.33164],[82.61033,49.25378],[82.59921,49.24512],[82.61989,49.23085],[82.63587,49.21088],[82.64192,49.21364],[82.65819,49.21136],[82.67278,49.23248],[82.69157,49.24077],[82.71353,49.23747],[82.73684,49.22606],[82.7458,49.22797],[82.7472,49.23233],[82.75859,49.23651],[82.77065,49.23315],[82.77413,49.22898],[82.78177,49.23116],[82.79091,49.22898],[82.78996,49.22343],[82.7976,49.22416],[82.79604,49.2184],[82.80312,49.2163],[82.79661,49.20981],[82.8021,49.20839],[82.80494,49.19557],[82.81754,49.19845],[82.82299,49.20194],[82.82228,49.20464],[82.82505,49.20062],[82.83097,49.20148],[82.83305,49.19766],[82.83771,49.20132],[82.83563,49.20829],[82.84084,49.21073],[82.84766,49.20715],[82.84651,49.20432],[82.86623,49.20361],[82.87273,49.19542],[82.88562,49.1989],[82.88691,49.19647],[82.88138,49.18942],[82.8946,49.17976],[82.90197,49.18377],[82.91461,49.18267],[82.93425,49.17771],[82.94154,49.17281],[82.97017,49.18095],[82.96858,49.17],[83.00853,49.16922],[83.06085,49.17466],[83.02956,49.228],[83.03935,49.24926],[83.09488,49.2387],[83.18174,49.26671],[83.15681,49.29507],[83.19208,49.30565],[83.21835,49.30923],[83.28435,49.28486],[83.31636,49.27923],[83.35366,49.26181],[83.3716,49.28469],[83.42365,49.26464],[83.42618,49.26724],[83.44468,49.24988],[83.46824,49.25164],[83.48635,49.26929],[83.49562,49.3042],[83.52232,49.31474],[83.54476,49.3438],[83.59278,49.3561],[83.59888,49.36888],[83.57768,49.3883],[83.609,49.38754],[83.62956,49.39642],[83.63754,49.39394],[83.64359,49.40874],[83.64445,49.41913],[83.626,49.42301],[83.61265,49.41625],[83.62016,49.42803],[83.60785,49.42675],[83.5987,49.43361],[83.61424,49.43947],[83.61626,49.44447],[83.62475,49.44865],[83.61982,49.45195],[83.61591,49.46327],[83.61003,49.46662],[83.61016,49.47136],[83.65299,49.48697],[83.61042,49.53509],[83.56981,49.57359],[83.5157,49.58217],[83.48263,49.57889],[83.45711,49.58204],[83.42269,49.61419],[83.37078,49.62689],[83.35001,49.63773],[83.34467,49.65255],[83.35353,49.6739],[83.34718,49.68283],[83.33777,49.68277],[83.31624,49.6744],[83.2691,49.67323],[83.25328,49.66854],[83.22718,49.66695],[83.14781,49.68172],[83.1264,49.67966],[83.10762,49.6903],[83.09863,49.69194],[83.07685,49.68546],[83.06346,49.68897],[83.03508,49.683],[83.02392,49.68367],[83.01819,49.69091],[83.02838,49.70657],[83.02557,49.71477],[83.01656,49.7195],[83.00488,49.71994],[82.96601,49.70852],[82.95477,49.7103],[82.94807,49.71813],[82.95361,49.74028],[82.89183,49.75598],[82.87927,49.7901],[82.83949,49.77328],[82.69049,49.81981],[82.66654,49.799],[82.64113,49.81119],[82.62532,49.80391],[82.62772,49.79557],[82.61298,49.80127],[82.56636,49.83001],[82.55847,49.85066],[82.58927,49.86346],[82.51737,49.90166],[82.49522,49.88601],[82.46613,49.87163],[82.42794,49.8812],[82.45806,49.91542],[82.39597,49.92041],[82.45478,49.96914],[82.44101,49.9762],[82.43884,49.98027],[82.44338,50.00553],[82.47415,50.02906],[82.46362,50.03649],[82.40296,50.0606],[82.33613,50.06414],[82.2758,50.14195],[82.25867,50.21505],[82.22535,50.23175],[82.1999,50.22135],[82.17704,50.22303],[82.1643,50.20751],[82.14426,50.20361],[82.08722,50.20795],[82.03959,50.20297],[82.0289,50.18833],[81.91835,50.19756],[81.91973,50.20108],[81.91029,50.20415],[81.88593,50.20356],[81.83501,50.19476],[81.81519,50.18767],[81.78961,50.20492],[81.79235,50.21613],[81.78866,50.2208],[81.77227,50.22179],[81.76841,50.22503],[81.76952,50.23134],[81.77545,50.23793],[81.77313,50.24408],[81.75116,50.24545],[81.62697,50.26883],[81.53251,50.30345],[81.47793,50.31928],[81.39961,50.31968],[81.3493,50.32341],[81.36048,50.29112],[81.36814,50.2465],[81.37379,50.23694],[81.33691,50.23166],[81.33234,50.22383],[81.32445,50.23076],[81.1931,50.25384],[81.15567,50.23356],[81.11254,50.22696]]]]}},
{"type":"Feature","properties":{"code":"UNR","name":"район Улкен Нарын"},"geometry":{"type":"MultiPolygon","coordinates":[[[[84.04816,49.32915],[84.18205,49.24372],[84.23544,49.20044],[84.24145,49.18956],[84.23716,49.15488],[84.23132,49.14039],[84.20557,49.12366],[84.18927,49.11727],[84.1805,49.08704],[84.18956,49.08002],[84.18986,49.06178],[84.20059,49.051],[84.19847,49.03256],[84.2018,49.02744],[84.19021,49.02355],[84.189,49.0198],[84.19525,49.01409],[84.1575,48.98833],[84.14515,48.97058],[84.21355,48.96923],[84.22411,48.96636],[84.2702,48.97796],[84.29355,48.97695],[84.30093,48.97115],[84.31818,48.96641],[84.3459,48.97106],[84.3565,48.98999],[84.3668,48.99821],[84.39723,49.03421],[84.43152,49.04144],[84.45491,49.02886],[84.48044,49.02737],[84.52336,49.01899],[84.55091,49.02647],[84.56044,49.01403],[84.58915,49.00871],[84.64219,48.9825],[84.66296,48.98117],[84.68777,48.9676],[84.72408,48.99643],[84.8157,48.97929],[84.86548,48.97658],[84.97148,48.98332],[85.02148,48.9825],[85.08224,49.01885],[85.09812,49.04816],[85.14404,49.22388],[85.14404,49.25347],[85.10216,49.2911],[85.07126,49.32915],[85.05409,49.3703],[85.03899,49.42973],[85.01427,49.46188],[84.97101,49.49935],[84.92708,49.59146],[84.91841,49.59765],[84.90628,49.59967],[84.86361,49.59118],[84.80365,49.58771],[84.79988,49.59397],[84.77868,49.60259],[84.78093,49.60588],[84.76819,49.62443],[84.7569,49.62412],[84.749,49.63247],[84.74973,49.64307],[84.74287,49.64234],[84.73707,49.64913],[84.75497,49.69077],[84.7307,49.70887],[84.68248,49.71987],[84.65853,49.70532],[84.65402,49.68644],[84.66152,49.68076],[84.66692,49.65921],[84.67273,49.65649],[84.69175,49.63018],[84.68022,49.61043],[84.68297,49.59643],[84.66619,49.57573],[84.67011,49.55942],[84.64833,49.53084],[84.64027,49.52776],[84.62165,49.53129],[84.59868,49.48658],[84.62411,49.48083],[84.63251,49.47656],[84.64001,49.46738],[84.63944,49.46469],[84.60078,49.44486],[84.60983,49.43665],[84.59528,49.43635],[84.5729,49.44782],[84.47861,49.46],[84.41281,49.39486],[84.37067,49.39743],[84.35097,49.40341],[84.28548,49.3691],[84.21802,49.41103],[84.18308,49.40304],[84.1524,49.37782],[84.13815,49.3717],[84.12525,49.37153],[84.11826,49.36506],[84.11101,49.36639],[84.10856,49.36174],[84.09193,49.3563],[84.077,49.33743],[84.04816,49.32915]]]]}},
{"type":"Feature","properties":{"code":"SHE","name":"Шемонаихинский район"},"geometry":{"type":"MultiPolygon","coordinates":[[[[81.58497,50.70433],[81.63404,50.69594],[81.63408,50.67373],[81.66412,50.64794],[81.66455,50.58449],[81.63273,50.58398],[81.62902,50.57628],[81.63729,50.57683],[81.63366,50.57408],[81.63674,50.56469],[81.64195,50.5658],[81.65014,50.56219],[81.65086,50.55511],[81.67865,50.55929],[81.67831,50.54924],[81.68744,50.55163],[81.68654,50.54396],[81.7002,50.54152],[81.71563,50.53253],[81.73705,50.50471],[81.70117,50.48434],[81.69315,50.48303],[81.69239,50.45842],[81.66921,50.43921],[81.67046,50.43356],[81.68082,50.42663],[81.69036,50.40801],[81.69725,50.40463],[81.72036,50.40254],[81.68841,50.40032],[81.68873,50.36053],[81.67957,50.33034],[81.68249,50.31522],[81.66733,50.29764],[81.657,50.29217],[81.65147,50.28532],[81.64319,50.28289],[81.62697,50.26883],[81.75116,50.24545],[81.77313,50.24408],[81.77545,50.23793],[81.76952,50.23134],[81.76841,50.22503],[81.77227,50.22179],[81.78866,50.2208],[81.79235,50.21613],[81.78961,50.20492],[81.81519,50.18767],[81.83501,50.19476],[81.88593,50.20356],[81.91029,50.20415],[81.91973,50.20108],[81.91835,50.19756],[82.0289,50.18833],[82.03959,50.20297],[82.02719,50.21294],[82.01105,50.21778],[81.98015,50.21305],[81.98977,50.22459],[82.00418,50.22881],[82.03165,50.24622],[82.02744,50.27343],[82.0472,50.31405],[82.02733,50.32323],[82.08452,50.38778],[82.09388,50.39202],[82.10953,50.38606],[82.11189,50.38908],[82.13774,50.3913],[82.25698,50.373],[82.31149,50.39877],[82.32784,50.37482],[82.36931,50.37087],[82.36811,50.36167],[82.38167,50.35619],[82.39626,50.35477],[82.40948,50.36145],[82.40982,50.38652],[82.41446,50.3921],[82.42115,50.37788],[82.44141,50.37656],[82.44879,50.38094],[82.45394,50.35762],[82.46853,50.35203],[82.50029,50.38171],[82.48758,50.4165],[82.50647,50.42285],[82.5341,50.44417],[82.53496,50.4492],[82.57153,50.4938],[82.56753,50.50314],[82.57101,50.50682],[82.55925,50.50565],[82.55595,50.51138],[82.5614,50.51839],[82.54947,50.52205],[82.54583,50.52681],[82.56891,50.53473],[82.58968,50.54772],[82.59788,50.5616],[82.59479,50.57893],[82.60028,50.58127],[82.61195,50.57484],[82.628,50.57343],[82.65324,50.5767],[82.66088,50.57026],[82.66946,50.57539],[82.6825,50.56983],[82.76739,50.60863],[82.78919,50.63901],[82.80327,50.64326],[82.80979,50.65153],[82.86524,50.65566],[82.87176,50.64696],[82.89597,50.65305],[82.91553,50.64652],[82.93837,50.65349],[82.94197,50.66056],[82.96017,50.66143],[82.97218,50.68254],[82.96154,50.68841],[82.94163,50.69015],[82.93201,50.69814],[82.93682,50.71972],[82.97064,50.77018],[82.96523,50.7762],[82.98111,50.80214],[82.99941,50.79568],[83.01407,50.80528],[83.0193,50.81277],[83.01493,50.8222],[82.99905,50.82936],[82.97836,50.83207],[82.97956,50.83793],[82.98798,50.83977],[82.99656,50.84627],[82.98211,50.85489],[82.97964,50.88385],[82.96179,50.89329],[82.92669,50.89866],[82.91105,50.90768],[82.89587,50.90483],[82.88912,50.9065],[82.88547,50.89797],[82.87483,50.89807],[82.86631,50.90442],[82.84781,50.90966],[82.83799,50.91803],[82.79421,50.91807],[82.78127,50.91999],[82.77135,50.92713],[82.73282,50.92727],[82.7288,50.92286],[82.73316,50.91536],[82.73141,50.90721],[82.71734,50.90093],[82.71745,50.894],[82.73068,50.8573],[82.73919,50.85043],[82.70647,50.8319],[82.71069,50.82816],[82.70997,50.82251],[82.70153,50.8122],[82.67511,50.80795],[82.68022,50.80059],[82.66801,50.79325],[82.64705,50.79433],[82.63042,50.77909],[82.60546,50.776],[82.56747,50.74684],[82.48548,50.74223],[82.48091,50.75176],[82.47182,50.75612],[82.40829,50.76384],[82.38072,50.77572],[82.37783,50.78043],[82.3666,50.77789],[82.35731,50.7846],[82.35077,50.77563],[82.32133,50.76125],[82.31674,50.75296],[82.30516,50.75579],[82.29586,50.76938],[82.27038,50.76979],[82.25702,50.76113],[82.24914,50.74889],[82.23702,50.74559],[82.22401,50.73683],[82.21583,50.74125],[82.21191,50.73692],[82.19945,50.73491],[82.18551,50.73703],[82.1727,50.73006],[82.1753,50.74527],[82.17216,50.7468],[82.15893,50.74695],[82.15238,50.74377],[82.14681,50.7451],[82.14723,50.74733],[82.07838,50.75084],[82.06113,50.75737],[82.06292,50.7658],[82.03597,50.76911],[82.02672,50.77891],[82.01285,50.78614],[81.9827,50.78571],[81.90614,50.7955],[81.88542,50.80431],[81.79678,50.77198],[81.7904,50.78978],[81.78872,50.81605],[81.77663,50.82059],[81.75565,50.78166],[81.72811,50.76004],[81.59083,50.7435],[81.58497,50.70433]]]]}}
]}
